NORAD_CAT_ID,OBJECT_NAME,OBJECT_TYPE,EPOCH,MEAN_MOTION,ECCENTRICITY,INCLINATION,RA_OF_ASC_NODE,ARG_OF_PERICENTER,MEAN_ANOMALY,BSTAR,MEAN_MOTION_DOT,MEAN_MOTION_DDOT,TLE_LINE0,TLE_LINE1,TLE_LINE2,SEMIMAJOR_AXIS,PERIOD,APOGEE,PERIGEE,DECAYED
52993.0,STARLINK-4264,PAYLOAD,2023-04-13 16:05:42,15.08848297,0.0001583,53.2133,177.2188,87.9509,272.1664,0.00015813,2.23e-05,0.0,0 STARLINK-4264,1 52993U 22076H   23103.67063273  .00002230  00000-0  15813-3 0  9996,2 52993  53.2133 177.2188 0001583  87.9509 272.1664 15.08848297 43137,6917.855,95.437,540.815,538.625,0.0
52993.0,STARLINK-4264,PAYLOAD,2023-04-14 11:10:20,15.08840792,0.0001488,53.214,173.6515,85.1485,274.9677,0.00013544,1.868e-05,0.0,0 STARLINK-4264,1 52993U 22076H   23104.46551856  .00001868  00000-0  13544-3 0  9998,2 52993  53.2140 173.6515 0001488  85.1485 274.9677 15.08840792 42782,6917.878,95.438,540.772,538.714,0.0
52993.0,STARLINK-4264,PAYLOAD,2023-04-15 11:01:07,15.08845771,0.0001304,53.2143,169.1924,78.6105,281.5033,7.9621e-05,9.8e-06,0.0,0 STARLINK-4264,1 52993U 22076H   23105.45911675  .00000980  00000-0  79621-4 0  9990,2 52993  53.2143 169.1924 0001304  78.6105 281.5033 15.08845771 42931,6917.863,95.437,540.63,538.826,0.0
52993.0,STARLINK-4264,PAYLOAD,2023-04-16 02:54:59,15.08838906,0.0001395,53.2143,166.2189,75.9721,284.1426,0.00012507,1.703e-05,0.0,0 STARLINK-4264,1 52993U 22076H   23106.12152048  .00001703  00000-0  12507-3 0  9999,2 52993  53.2143 166.2189 0001395  75.9721 284.1426 15.08838906 43507,6917.884,95.438,540.714,538.784,0.0
52993.0,STARLINK-4264,PAYLOAD,2023-04-16 10:51:54,15.08842524,0.0001332,53.2151,164.7315,82.2696,277.8448,0.00010719,1.419e-05,0.0,0 STARLINK-4264,1 52993U 22076H   23106.45271825  .00001419  00000-0  10719-3 0  9997,2 52993  53.2151 164.7315 0001332  82.2696 277.8448 15.08842524 43080,6917.873,95.437,540.659,538.816,0.0
52993.0,STARLINK-4264,PAYLOAD,2023-04-16 20:24:13,15.08836386,0.0001305,53.215,162.9484,93.224,266.8901,3.2341e-06,-2.36e-06,0.0,0 STARLINK-4264,1 52993U 22076H   23106.85016110 -.00000236  00000-0  32341-5 0  9999,2 52993  53.2150 162.9484 0001305  93.2240 266.8901 15.08836386 43141,6917.891,95.438,540.659,538.854,0.0
52993.0,STARLINK-4264,PAYLOAD,2023-04-17 04:21:09,15.08833127,0.0001517,53.2161,161.4614,98.1779,261.9385,-2.6819e-05,-7.15e-06,0.0,0 STARLINK-4264,1 52993U 22076H   23107.18136417 -.00000715  00000-0 -26819-4 0  9994,2 52993  53.2161 161.4614 0001517  98.1779 261.9385 15.08833127 43667,6917.901,95.438,540.816,538.717,0.0
52993.0,STARLINK-4264,PAYLOAD,2023-04-17 12:18:05,15.0883704,0.0001357,53.2162,159.9756,86.1731,273.9416,2.7312e-05,1.47e-06,0.0,0 STARLINK-4264,1 52993U 22076H   23107.51256633  .00000147  00000-0  27312-4 0  9990,2 52993  53.2162 159.9756 0001357  86.1731 273.9416 15.08837040 43244,6917.889,95.438,540.693,538.816,0.0
52993.0,STARLINK-4264,PAYLOAD,2023-04-17 20:15:01,15.088399,0.0001427,53.216,158.4854,78.0447,282.0705,1.6135e-05,-3.1e-07,0.0,0 STARLINK-4264,1 52993U 22076H   23107.84376534 -.00000031  00000-0  16135-4 0  9993,2 52993  53.2160 158.4854 0001427  78.0447 282.0705 15.08839900 43291,6917.881,95.438,540.733,538.759,0.0
52993.0,STARLINK-4264,PAYLOAD,2023-04-18 08:58:06,15.08838897,0.0001241,53.2149,156.1066,89.0776,271.0358,9.0061e-05,1.146e-05,0.0,0 STARLINK-4264,1 52993U 22076H   23108.37368652  .00001146  00000-0  90061-4 0  9991,2 52993  53.2149 156.1066 0001241  89.0776 271.0358 15.08838897 43374,6917.884,95.438,540.607,538.89,0.0
52993.0,STARLINK-4264,PAYLOAD,2023-04-19 11:59:39,15.0884431,0.0001213,53.2147,151.0505,85.4222,274.6908,0.00015087,2.114e-05,0.0,0 STARLINK-4264,1 52993U 22076H   23109.49976474  .00002114  00000-0  15087-3 0  9992,2 52993  53.2147 151.0505 0001213  85.4222 274.6908 15.08844310 44018,6917.867,95.437,540.571,538.893,0.0
52993.0,STARLINK-4264,PAYLOAD,2023-04-19 19:56:35,15.08842014,0.0001391,53.2145,149.564,79.8228,280.2921,0.00011784,1.588e-05,0.0,0 STARLINK-4264,1 52993U 22076H   23109.83096662  .00001588  00000-0  11784-3 0  9996,2 52993  53.2145 149.5640 0001391  79.8228 280.2921 15.08842014 43597,6917.874,95.437,540.702,538.777,0.0
52993.0,STARLINK-4264,PAYLOAD,2023-04-20 05:28:54,15.08839277,0.0001372,53.2147,147.7793,83.7021,276.4127,8.2098e-05,1.019e-05,0.0,0 STARLINK-4264,1 52993U 22076H   23110.22840975  .00001019  00000-0  82098-4 0  9991,2 52993  53.2147 147.7793 0001372  83.7021 276.4127 15.08839277 44124,6917.883,95.438,540.697,538.798,0.0
52993.0,STARLINK-4264,PAYLOAD,2023-04-20 11:50:26,15.08844572,0.0001443,53.2146,146.5895,84.6115,275.5042,0.00011053,1.472e-05,0.0,0 STARLINK-4264,1 52993U 22076H   23110.49336539  .00001472  00000-0  11053-3 0  9991,2 52993  53.2146 146.5895 0001443  84.6115 275.5042 15.08844572 43697,6917.866,95.437,540.73,538.733,0.0
52993.0,STARLINK-4264,PAYLOAD,2023-04-20 19:47:22,15.08839107,0.0001452,53.2146,145.1046,73.6533,286.4618,5.0544e-05,5.17e-06,0.0,0 STARLINK-4264,1 52993U 22076H   23110.82457031  .00000517  00000-0  50544-4 0  9997,2 52993  53.2146 145.1046 0001452  73.6533 286.4618 15.08839107 43746,6917.883,95.438,540.753,538.744,0.0
52993.0,STARLINK-4264,PAYLOAD,2023-04-21 05:19:42,15.08828927,0.0001252,53.2146,143.3203,69.0108,291.1018,0.00010527,1.387e-05,0.0,0 STARLINK-4264,1 52993U 22076H   23111.22201539  .00001387  00000-0  10527-3 0  9994,2 52993  53.2146 143.3203 0001252  69.0108 291.1018 15.08828927 44270,6917.914,95.438,540.645,538.913,0.0
52993.0,STARLINK-4264,PAYLOAD,2023-04-21 11:41:14,15.08834578,0.000116,53.2147,142.1301,72.0961,288.0158,7.06e-05,8.36e-06,0.0,0 STARLINK-4264,1 52993U 22076H   23111.48697315  .00000836  00000-0  70600-4 0  9990,2 52993  53.2147 142.1301 0001160  72.0961 288.0158 15.08834578 43847,6917.897,95.438,540.564,538.959,0.0
52993.0,STARLINK-4264,PAYLOAD,2023-04-21 19:38:09,15.08842007,0.0001444,53.2152,140.6428,82.7678,277.3478,5.6138e-05,6.06e-06,0.0,0 STARLINK-4264,1 52993U 22076H   23111.81816875  .00000606  00000-0  56138-4 0  9996,2 52993  53.2152 140.6428 0001444  82.7678 277.3478 15.08842007 44364,6917.874,95.437,540.738,538.74,0.0
52993.0,STARLINK-4264,PAYLOAD,2023-04-22 11:32:00,15.08849859,0.0001418,53.2148,137.6686,89.6232,270.4923,0.00010907,1.449e-05,0.0,0 STARLINK-4264,1 52993U 22076H   23112.48056029  .00001449  00000-0  10907-3 0  9996,2 52993  53.2148 137.6686 0001418  89.6232 270.4923 15.08849859 43993,6917.85,95.437,540.696,538.734,0.0
52993.0,STARLINK-4264,PAYLOAD,2023-04-22 13:07:23,15.08852218,0.000144,53.2151,137.3715,89.6264,270.4893,0.00013109,1.8e-05,0.0,0 STARLINK-4264,1 52993U 22076H   23112.54679801  .00001800  00000-0  13109-3 0  9990,2 52993  53.2151 137.3715 0001440  89.6264 270.4893 15.08852218 44470,6917.843,95.437,540.704,538.712,0.0
52993.0,STARLINK-4264,PAYLOAD,2023-04-23 11:22:48,15.08830158,0.0001441,53.2161,133.2079,91.8728,268.2429,2.195e-06,-2.53e-06,0.0,0 STARLINK-4264,1 52993U 22076H   23113.47417704 -.00000253  00000-0  21950-5 0  9992,2 52993  53.2161 133.2079 0001441  91.8728 268.2429 15.08830158 44143,6917.91,95.438,540.772,538.779,0.0
52993.0,STARLINK-4264,PAYLOAD,2023-04-23 12:58:11,15.08834972,7.79e-05,53.2155,132.9122,128.163,231.9433,2.1641e-05,5.7e-07,0.0,0 STARLINK-4264,1 52993U 22076H   23113.54041015  .00000057  00000-0  21641-4 0  9995,2 52993  53.2155 132.9122 0000779 128.1630 231.9433 15.08834972 44623,6917.896,95.438,540.3,539.222,0.0
52993.0,STARLINK-4264,PAYLOAD,2023-04-24 12:48:56,15.08859829,0.0001837,53.2171,128.4487,128.6128,231.5029,6.935e-05,8.16e-06,0.0,0 STARLINK-4264,1 52993U 22076H   23114.53399244  .00000816  00000-0  69350-4 0  9997,2 52993  53.2171 128.4487 0001837 128.6128 231.5029 15.08859829 44308,6917.82,95.436,540.956,538.414,0.0
52993.0,STARLINK-4264,PAYLOAD,2023-04-25 11:04:23,15.08827133,0.0001248,53.2159,124.288,79.4534,280.6599,-5.4793e-05,-1.159e-05,0.0,0 STARLINK-4264,1 52993U 22076H   23115.46138084 -.00001159  00000-0 -54793-4 0  9991,2 52993  53.2159 124.2880 0001248  79.4534 280.6599 15.08827133 44440,6917.92,95.438,540.648,538.921,0.0
52993.0,STARLINK-4264,PAYLOAD,2023-04-26 12:30:33,15.08828494,0.0001233,53.2151,119.5311,84.4357,275.6775,9.6051e-05,1.241e-05,0.0,0 STARLINK-4264,1 52993U 22076H   23116.52121875  .00001241  00000-0  96051-4 0  9992,2 52993  53.2151 119.5311 0001233  84.4357 275.6775 15.08828494 44600,6917.916,95.438,540.634,538.928,0.0
52993.0,STARLINK-4264,PAYLOAD,2023-04-26 17:16:42,15.08830617,0.0001307,53.2154,118.639,76.8454,283.2684,0.00010706,1.416e-05,0.0,0 STARLINK-4264,1 52993U 22076H   23116.71993893  .00001416  00000-0  10706-3 0  9996,2 52993  53.2154 118.6390 0001307  76.8454 283.2684 15.08830617 44632,6917.909,95.438,540.678,538.87,0.0
52993.0,STARLINK-4264,PAYLOAD,2023-04-27 04:24:24,15.08833688,0.0001262,53.2158,116.5558,77.0123,283.101,0.00016165,2.285e-05,0.0,0 STARLINK-4264,1 52993U 22076H   23117.18361747  .00002285  00000-0  16165-3 0  9995,2 52993  53.2158 116.5558 0001262  77.0123 283.1010 15.08833688 45178,6917.9,95.438,540.638,538.892,0.0
52993.0,STARLINK-4264,PAYLOAD,2023-04-27 12:21:19,15.0883989,0.0001295,53.216,115.0686,76.8833,283.2304,0.0001731,2.468e-05,0.0,0 STARLINK-4264,1 52993U 22076H   23117.51481476  .00002468  00000-0  17310-3 0  9990,2 52993  53.2160 115.0686 0001295  76.8833 283.2304 15.08839890 44759,6917.881,95.438,540.642,538.85,0.0
52993.0,STARLINK-4264,PAYLOAD,2023-04-28 05:50:34,15.08844089,0.0001328,53.2159,111.7976,77.2465,282.8675,0.00010829,1.436e-05,0.0,0 STARLINK-4264,1 52993U 22076H   23118.24345419  .00001436  00000-0  10829-3 0  9999,2 52993  53.2159 111.7976 0001328  77.2465 282.8675 15.08844089 45332,6917.868,95.437,540.652,538.814,0.0
52993.0,STARLINK-4264,PAYLOAD,2023-04-28 09:01:20,15.08847322,0.0001334,53.216,111.2025,77.6234,282.4907,0.0001325,1.822e-05,0.0,0 STARLINK-4264,1 52993U 22076H   23118.37593101  .00001822  00000-0  13250-3 0  9996,2 52993  53.2160 111.2025 0001334  77.6234 282.4907 15.08847322 44885,6917.858,95.437,540.646,538.8,0.0
